[{"OBJECT_NAME":"STARLINK-4158","OBJECT_ID":"2022-076AT","EPOCH":"2026-03-09T10:44:17.811168","MEAN_MOTION":15.0883282,"ECCENTRICITY":0.00010668,"INCLINATION":53.2166,"RA_OF_ASC_NODE":85.2085,"ARG_OF_PERICENTER":114.2778,"MEAN_ANOMALY":245.8326,"EPHEMERIS_TYPE":0,"CLASSIFICATION_TYPE":"U","NORAD_CAT_ID":53027,"ELEMENT_SET_NO":999,"REV_AT_EPOCH":20295,"BSTAR":7.6066553e-5,"MEAN_MOTION_DOT":9.23e-6,"MEAN_MOTION_DDOT":0},{"OBJECT_NAME":"NOAA 16 DEB","OBJECT_ID":"2000-055BZ","EPOCH":"2026-03-09T09:57:46.840608","MEAN_MOTION":15.04968987,"ECCENTRICITY":0.00133628,"INCLINATION":98.8453,"RA_OF_ASC_NODE":286.076,"ARG_OF_PERICENTER":194.204,"MEAN_ANOMALY":165.8809,"EPHEMERIS_TYPE":0,"CLASSIFICATION_TYPE":"U","NORAD_CAT_ID":41142,"ELEMENT_SET_NO":999,"REV_AT_EPOCH":53866,"BSTAR":0.0051237154,"MEAN_MOTION_DOT":0.00073426,"MEAN_MOTION_DDOT":0}]
